start=new Date('2021-10-25T00:00:00.000Z').valueOf();
sats=[{"EPOCH":"2021-10-25T00:00:00.999648","MEAN_MOTION":"15.53349882","REV_AT_EPOCH":"367","BSTAR":"-0.01819100000000","APOAPSIS":"407.732","LAUNCH_DATE":"2021-03-24","COUNTRY_CODE":"US","GP_ID":"188105812","MEAN_ANOMALY":"207.6486","CLASSIFICATION_TYPE":"U","MEAN_MOTION_DOT":"-0.01062153","ARG_OF_PERICENTER":"82.9951","TIME_SYSTEM":"UTC","CENTER_NAME":"EARTH","EPHEMERIS_TYPE":"0","MEAN_ELEMENT_THEORY":"SGP4","OBJECT_ID":"2021-024P","TLE_LINE2":"2 47990  53.0417 218.4616 0001144  82.9951 207.6486 15.53349882  3670","REF_FRAME":"TEME","DECAY_DATE":null,"FILE":"3182768","SITE":"AFETR","MEAN_MOTION_DDOT":"0.0000000000000","ECCENTRICITY":"0.00011440","RA_OF_ASC_NODE":"218.4616","SEMIMAJOR_AXIS":"6785.091","ELEMENT_SET_NO":"999","OBJECT_TYPE":"PAYLOAD","RCS_SIZE":"LARGE","PERIAPSIS":"406.179","NORAD_CAT_ID":"47990","PERIOD":"92.703","OBJECT_NAME":"STARLINK-2307","INCLINATION":"53.0417","TLE_LINE1":"1 47990U 21024P   21298.00001157 -.01062153  00000-0 -18191-1 0  9995"},{"GP_ID":"188106063","CLASSIFICATION_TYPE":"U","COUNTRY_CODE":"US","MEAN_ANOMALY":"317.1863","MEAN_MOTION_DOT":"-0.00029669","ARG_OF_PERICENTER":"66.5565","TIME_SYSTEM":"UTC","CENTER_NAME":"EARTH","EPHEMERIS_TYPE":"0","OBJECT_ID":"2021-024Q","MEAN_ELEMENT_THEORY":"SGP4","TLE_LINE2":"2 47991  53.0515 228.0591 0001523  66.5565 317.1863 15.04765345  3611","BSTAR":"-0.00207060000000","APOAPSIS":"553.284","LAUNCH_DATE":"2021-03-24","REV_AT_EPOCH":"361","EPOCH":"2021-10-25T00:00:00.999648","MEAN_MOTION":"15.04765345","OBJECT_NAME":"STARLINK-2279","INCLINATION":"53.0515","TLE_LINE1":"1 47991U 21024Q   21298.00001157 -.00029669  00000-0 -20706-2 0  9996","RCS_SIZE":"MEDIUM","PERIAPSIS":"551.173","NORAD_CAT_ID":"47991","PERIOD":"95.696","OBJECT_TYPE":"PAYLOAD","DECAY_DATE":null,"REF_FRAME":"TEME","FILE":"3182768","SITE":"AFETR","MEAN_MOTION_DDOT":"0.0000000000000","ECCENTRICITY":"0.00015230","SEMIMAJOR_AXIS":"6930.363","RA_OF_ASC_NODE":"228.0591","ELEMENT_SET_NO":"999"},{"BSTAR":"-0.05210100000000","APOAPSIS":"526.527","LAUNCH_DATE":"2021-03-24","ARG_OF_PERICENTER":"49.6143","MEAN_MOTION_DOT":"-0.00877728","GP_ID":"188104811","COUNTRY_CODE":"US","MEAN_ANOMALY":"222.3388","CLASSIFICATION_TYPE":"U","TIME_SYSTEM":"UTC","EPHEMERIS_TYPE":"0","CENTER_NAME":"EARTH","TLE_LINE2":"2 47992  53.0466 224.5124 0001638  49.6143 222.3388 15.13546836  3634","MEAN_ELEMENT_THEORY":"SGP4","OBJECT_ID":"2021-024R","EPOCH":"2021-10-25T00:00:00.999648","MEAN_MOTION":"15.13546836","REV_AT_EPOCH":"363","RCS_SIZE":"LARGE","PERIAPSIS":"524.265","PERIOD":"95.141","NORAD_CAT_ID":"47992","OBJECT_NAME":"STARLINK-2229","INCLINATION":"53.0466","TLE_LINE1":"1 47992U 21024R   21298.00001157 -.00877728  00000-0 -52101-1 0  9997","FILE":"3182768","DECAY_DATE":null,"REF_FRAME":"TEME","MEAN_MOTION_DDOT":"0.0000000000000","SITE":"AFETR","ECCENTRICITY":"0.00016380","SEMIMAJOR_AXIS":"6903.531","ELEMENT_SET_NO":"999","RA_OF_ASC_NODE":"224.5124","OBJECT_TYPE":"PAYLOAD"},{"SEMIMAJOR_AXIS":"6925.341","RA_OF_ASC_NODE":"266.1149","ELEMENT_SET_NO":"999","ECCENTRICITY":"0.00014800","SITE":"AFETR","MEAN_MOTION_DDOT":"0.0000000000000","REF_FRAME":"TEME","DECAY_DATE":null,"FILE":"3182768","OBJECT_TYPE":"PAYLOAD","NORAD_CAT_ID":"47993","PERIOD":"95.592","PERIAPSIS":"546.182","RCS_SIZE":"LARGE","TLE_LINE1":"1 47993U 21024S   21297.62523093  .00001680  00000-0  13166-3 0  9997","INCLINATION":"53.0559","OBJECT_NAME":"STARLINK-2273","MEAN_MOTION":"15.06402309","EPOCH":"2021-10-24T15:00:19.952352","REV_AT_EPOCH":"3440","LAUNCH_DATE":"2021-03-24","APOAPSIS":"548.231","BSTAR":"0.00013166000000","MEAN_ELEMENT_THEORY":"SGP4","OBJECT_ID":"2021-024S","TLE_LINE2":"2 47993  53.0559 266.1149 0001480  84.7561 275.3596 15.06402309 34402","CENTER_NAME":"EARTH","EPHEMERIS_TYPE":"0","TIME_SYSTEM":"UTC","GP_ID":"188105061","COUNTRY_CODE":"US","CLASSIFICATION_TYPE":"U","MEAN_ANOMALY":"275.3596","MEAN_MOTION_DOT":"0.00001680","ARG_OF_PERICENTER":"84.7561"},{"RCS_SIZE":"LARGE","PERIAPSIS":"546.216","NORAD_CAT_ID":"47994","PERIOD":"95.592","OBJECT_NAME":"STARLINK-2290","INCLINATION":"53.0550","TLE_LINE1":"1 47994U 21024T   21297.69572161 -.00000028  00000-0  17048-4 0  9995","DECAY_DATE":null,"REF_FRAME":"TEME","FILE":"3182768","SITE":"AFETR","MEAN_MOTION_DDOT":"0.0000000000000","ECCENTRICITY":"0.00014470","SEMIMAJOR_AXIS":"6925.353","RA_OF_ASC_NODE":"280.7952","ELEMENT_SET_NO":"999","OBJECT_TYPE":"PAYLOAD","BSTAR":"0.00001704800000","APOAPSIS":"548.220","LAUNCH_DATE":"2021-03-24","GP_ID":"188106313","COUNTRY_CODE":"US","CLASSIFICATION_TYPE":"U","MEAN_ANOMALY":"293.8141","MEAN_MOTION_DOT":"-0.00000028","ARG_OF_PERICENTER":"66.2999","TIME_SYSTEM":"UTC","CENTER_NAME":"EARTH","EPHEMERIS_TYPE":"0","MEAN_ELEMENT_THEORY":"SGP4","OBJECT_ID":"2021-024T","TLE_LINE2":"2 47994  53.0550 280.7952 0001447  66.2999 293.8141 15.06398669 34146","EPOCH":"2021-10-24T16:41:50.347104","MEAN_MOTION":"15.06398669","REV_AT_EPOCH":"3414"},{"TLE_LINE1":"1 47995U 21024U   21297.86160416 -.00000603  00000-0 -22191-4 0  9996","INCLINATION":"53.0696","OBJECT_NAME":"STARLINK-2309","NORAD_CAT_ID":"47995","PERIOD":"95.644","PERIAPSIS":"548.479","RCS_SIZE":"LARGE","OBJECT_TYPE":"PAYLOAD","SEMIMAJOR_AXIS":"6927.850","RA_OF_ASC_NODE":"244.8733","ELEMENT_SET_NO":"999","ECCENTRICITY":"0.00017840","SITE":"AFETR","MEAN_MOTION_DDOT":"0.0000000000000","DECAY_DATE":null,"REF_FRAME":"TEME","FILE":"3182768","MEAN_ELEMENT_THEORY":"SGP4","OBJECT_ID":"2021-024U","TLE_LINE2":"2 47995  53.0696 244.8733 0001784  68.0596 292.0582 15.05584168 34671","CENTER_NAME":"EARTH","EPHEMERIS_TYPE":"0","TIME_SYSTEM":"UTC","CLASSIFICATION_TYPE":"U","GP_ID":"188106564","COUNTRY_CODE":"US","MEAN_ANOMALY":"292.0582","ARG_OF_PERICENTER":"68.0596","MEAN_MOTION_DOT":"-0.00000603","LAUNCH_DATE":"2021-03-24","APOAPSIS":"550.951","BSTAR":"-0.00002219100000","REV_AT_EPOCH":"3467","MEAN_MOTION":"15.05584168","EPOCH":"2021-10-24T20:40:42.599424"},{"OBJECT_TYPE":"PAYLOAD","DECAY_DATE":null,"REF_FRAME":"TEME","FILE":"3182768","SITE":"AFETR","MEAN_MOTION_DDOT":"0.0000000000000","ECCENTRICITY":"0.00057110","SEMIMAJOR_AXIS":"6727.810","RA_OF_ASC_NODE":"217.8325","ELEMENT_SET_NO":"999","OBJECT_NAME":"STARLINK-2260","INCLINATION":"53.0437","TLE_LINE1":"1 47996U 21024V   21298.00001157 -.00045818  00000-0 -32294-3 0  9991","RCS_SIZE":"LARGE","PERIAPSIS":"345.833","NORAD_CAT_ID":"47996","PERIOD":"91.531","REV_AT_EPOCH":"367","EPOCH":"2021-10-25T00:00:00.999648","MEAN_MOTION":"15.73229768","COUNTRY_CODE":"US","GP_ID":"188105312","MEAN_ANOMALY":"289.0221","CLASSIFICATION_TYPE":"U","ARG_OF_PERICENTER":"305.5759","MEAN_MOTION_DOT":"-0.00045818","TIME_SYSTEM":"UTC","CENTER_NAME":"EARTH","EPHEMERIS_TYPE":"0","MEAN_ELEMENT_THEORY":"SGP4","OBJECT_ID":"2021-024V","TLE_LINE2":"2 47996  53.0437 217.8325 0005711 305.5759 289.0221 15.73229768  3675","BSTAR":"-0.00032294000000","APOAPSIS":"353.518","LAUNCH_DATE":"2021-03-24"},{"APOAPSIS":"548.226","BSTAR":"0.00000610540000","LAUNCH_DATE":"2021-03-24","TIME_SYSTEM":"UTC","GP_ID":"188105562","COUNTRY_CODE":"US","CLASSIFICATION_TYPE":"U","MEAN_ANOMALY":"293.5919","MEAN_MOTION_DOT":"-0.00000191","ARG_OF_PERICENTER":"66.5222","OBJECT_ID":"2021-024W","MEAN_ELEMENT_THEORY":"SGP4","TLE_LINE2":"2 47997  53.0569 280.8822 0001448  66.5222 293.5919 15.06396956 34203","CENTER_NAME":"EARTH","EPHEMERIS_TYPE":"0","EPOCH":"2021-10-24T16:15:18.873792","MEAN_MOTION":"15.06396956","REV_AT_EPOCH":"3420","RCS_SIZE":"LARGE","NORAD_CAT_ID":"47997","PERIOD":"95.592","PERIAPSIS":"546.220","INCLINATION":"53.0569","OBJECT_NAME":"STARLINK-2266","TLE_LINE1":"1 47997U 21024W   21297.67730178 -.00000191  00000-0  61054-5 0  9998","SITE":"AFETR","MEAN_MOTION_DDOT":"0.0000000000000","DECAY_DATE":null,"REF_FRAME":"TEME","FILE":"3182768","SEMIMAJOR_AXIS":"6925.358","ELEMENT_SET_NO":"999","RA_OF_ASC_NODE":"280.8822","ECCENTRICITY":"0.00014480","OBJECT_TYPE":"PAYLOAD"},{"PERIOD":"95.592","NORAD_CAT_ID":"47998","PERIAPSIS":"546.145","RCS_SIZE":"LARGE","TLE_LINE1":"1 47998U 21024X   21297.86110416  .00000593  00000-0  58701-4 0  9996","INCLINATION":"53.0514","OBJECT_NAME":"STARLINK-2296","ELEMENT_SET_NO":"999","SEMIMAJOR_AXIS":"6925.331","RA_OF_ASC_NODE":"255.0602","ECCENTRICITY":"0.00015170","MEAN_MOTION_DDOT":"0.0000000000000","SITE":"AFETR","FILE":"3182768","DECAY_DATE":null,"REF_FRAME":"TEME","OBJECT_TYPE":"PAYLOAD","LAUNCH_DATE":"2021-03-24","APOAPSIS":"548.247","BSTAR":"0.00005870100000","TLE_LINE2":"2 47998  53.0514 255.0602 0001517  71.1795 288.9358 15.06405721 34529","MEAN_ELEMENT_THEORY":"SGP4","OBJECT_ID":"2021-024X","EPHEMERIS_TYPE":"0","CENTER_NAME":"EARTH","TIME_SYSTEM":"UTC","ARG_OF_PERICENTER":"71.1795","MEAN_MOTION_DOT":"0.00000593","COUNTRY_CODE":"US","GP_ID":"188105813","CLASSIFICATION_TYPE":"U","MEAN_ANOMALY":"288.9358","MEAN_MOTION":"15.06405721","EPOCH":"2021-10-24T20:39:59.399424","REV_AT_EPOCH":"3452"},{"TIME_SYSTEM":"UTC","ARG_OF_PERICENTER":"52.7186","MEAN_MOTION_DOT":"-0.00879537","CLASSIFICATION_TYPE":"U","GP_ID":"188106064","COUNTRY_CODE":"US","MEAN_ANOMALY":"93.2692","TLE_LINE2":"2 47999  53.0408 224.4865 0001732  52.7186  93.2692 15.12366803  3620","OBJECT_ID":"2021-024Y","MEAN_ELEMENT_THEORY":"SGP4","EPHEMERIS_TYPE":"0","CENTER_NAME":"EARTH","APOAPSIS":"530.183","BSTAR":"-0.05397900000000","LAUNCH_DATE":"2021-03-24","REV_AT_EPOCH":"362","EPOCH":"2021-10-25T00:00:00.999648","MEAN_MOTION":"15.12366803","INCLINATION":"53.0408","OBJECT_NAME":"STARLINK-2218","TLE_LINE1":"1 47999U 21024Y   21298.00001157 -.00879537  00000-0 -53979-1 0  9998","RCS_SIZE":"LARGE","PERIOD":"95.215","NORAD_CAT_ID":"47999","PERIAPSIS":"527.790","OBJECT_TYPE":"PAYLOAD","MEAN_MOTION_DDOT":"0.0000000000000","SITE":"AFETR","FILE":"3182768","REF_FRAME":"TEME","DECAY_DATE":null,"RA_OF_ASC_NODE":"224.4865","SEMIMAJOR_AXIS":"6907.121","ELEMENT_SET_NO":"999","ECCENTRICITY":"0.00017320"}];
